{
  "type": "FeatureCollection",
  "features": [
    {
      "type": "Feature",
      "properties": {
        "norad_id": 33986,
        "name": "COSMOS 2251 DEB",
        "group": "cosmos-2251-debris",
        "lat": -36.056773894641935,
        "lon": 125.40736096041223,
        "alt_km": 778.235256790982,
        "timestamp": "2025-12-17T17:50:19.643820+00:00",
        "meta_object_name": "COSMOS 2251 DEB",
        "meta_object_id": "1993-036FV",
        "meta_epoch": "2025-12-17T05:44:50.841312",
        "meta_mean_motion": 14.43227562,
        "meta_eccentricity": 0.00407587,
        "meta_inclination": 74.0365,
        "meta_ra_of_asc_node": 294.3141,
        "meta_arg_of_pericenter": 6.0909,
        "meta_mean_anomaly": 115.2912,
        "meta_ephemeris_type": 0,
        "meta_classification_type": "U",
        "meta_norad_cat_id": 33986,
        "meta_element_set_no": 999,
        "meta_rev_at_epoch": 88093,
        "meta_bstar": 0.00056606616,
        "meta_mean_motion_dot": 1.897e-05,
        "meta_mean_motion_ddot": 0,
        "tle_line1": "1 33986U 93036FV  25351.23947733  .00001897  00000+0  56607-3 0  9995",
        "tle_line2": "2 33986  74.0365 294.3141 0040758   6.0909 115.2912 14.43227562880933"
      },
      "geometry": {
        "type": "Point",
        "coordinates": [
          125.40736096041223,
          -36.056773894641935
        ]
      }
    },
    {
      "type": "Feature",
      "properties": {
        "norad_id": 33990,
        "name": "COSMOS 2251 DEB",
        "group": "cosmos-2251-debris",
        "lat": 34.311715785857736,
        "lon": -70.69236759633199,
        "alt_km": 1103.0223504153673,
        "timestamp": "2025-12-17T17:50:19.643830+00:00",
        "meta_object_name": "COSMOS 2251 DEB",
        "meta_object_id": "1993-036FZ",
        "meta_epoch": "2025-12-17T06:00:01.969920",
        "meta_mean_motion": 13.50001477,
        "meta_eccentricity": 0.04074836,
        "meta_inclination": 73.9284,
        "meta_ra_of_asc_node": 278.7533,
        "meta_arg_of_pericenter": 298.2512,
        "meta_mean_anomaly": 216.7523,
        "meta_ephemeris_type": 0,
        "meta_classification_type": "U",
        "meta_norad_cat_id": 33990,
        "meta_element_set_no": 999,
        "meta_rev_at_epoch": 82790,
        "meta_bstar": 0.00084148439,
        "meta_mean_motion_dot": 8.72e-06,
        "meta_mean_motion_ddot": 0,
        "tle_line1": "1 33990U 93036FZ  25351.25002280  .00000872  00000+0  84148-3 0  9994",
        "tle_line2": "2 33990  73.9284 278.7533 0407483 298.2512 216.7523 13.50001477827909"
      },
      "geometry": {
        "type": "Point",
        "coordinates": [
          -70.69236759633199,
          34.311715785857736
        ]
      }
    },
    {
      "type": "Feature",
      "properties": {
        "norad_id": 33992,
        "name": "COSMOS 2251 DEB",
        "group": "cosmos-2251-debris",
        "lat": 49.324703246389554,
        "lon": 128.61234383160004,
        "alt_km": 641.6801105821423,
        "timestamp": "2025-12-17T17:50:19.643840+00:00",
        "meta_object_name": "COSMOS 2251 DEB",
        "meta_object_id": "1993-036GB",
        "meta_epoch": "2025-12-17T07:56:51.563904",
        "meta_mean_motion": 14.66250674,
        "meta_eccentricity": 0.0051673,
        "meta_inclination": 74.0237,
        "meta_ra_of_asc_node": 328.88,
        "meta_arg_of_pericenter": 85.3203,
        "meta_mean_anomaly": 27.587,
        "meta_ephemeris_type": 0,
        "meta_classification_type": "U",
        "meta_norad_cat_id": 33992,
        "meta_element_set_no": 999,
        "meta_rev_at_epoch": 89192,
        "meta_bstar": 0.00058283129,
        "meta_mean_motion_dot": 3.245e-05,
        "meta_mean_motion_ddot": 0,
        "tle_line1": "1 33992U 93036GB  25351.33115236  .00003245  00000+0  58283-3 0  9999",
        "tle_line2": "2 33992  74.0237 328.8800 0051673  85.3203  27.5870 14.66250674891922"
      },
      "geometry": {
        "type": "Point",
        "coordinates": [
          128.61234383160004,
          49.324703246389554
        ]
      }
    },
    {
      "type": "Feature",
      "properties": {
        "norad_id": 33994,
        "name": "COSMOS 2251 DEB",
        "group": "cosmos-2251-debris",
        "lat": -47.701181536381576,
        "lon": 162.82099063766296,
        "alt_km": 744.0350880042915,
        "timestamp": "2025-12-17T17:50:19.643850+00:00",
        "meta_object_name": "COSMOS 2251 DEB",
        "meta_object_id": "1993-036GD",
        "meta_epoch": "2025-12-17T07:13:00.678720",
        "meta_mean_motion": 14.4121743,
        "meta_eccentricity": 0.00237871,
        "meta_inclination": 74.0415,
        "meta_ra_of_asc_node": 181.9695,
        "meta_arg_of_pericenter": 315.5225,
        "meta_mean_anomaly": 218.9366,
        "meta_ephemeris_type": 0,
        "meta_classification_type": "U",
        "meta_norad_cat_id": 33994,
        "meta_element_set_no": 999,
        "meta_rev_at_epoch": 88485,
        "meta_bstar": 8.2271757e-05,
        "meta_mean_motion_dot": 2.4e-06,
        "meta_mean_motion_ddot": 0,
        "tle_line1": "1 33994U 93036GD  25351.30070230  .00000240  00000+0  82272-4 0  9990",
        "tle_line2": "2 33994  74.0415 181.9695 0023787 315.5225 218.9366 14.41217430884855"
      },
      "geometry": {
        "type": "Point",
        "coordinates": [
          162.82099063766296,
          -47.701181536381576
        ]
      }
    },
    {
      "type": "Feature",
      "properties": {
        "norad_id": 33995,
        "name": "COSMOS 2251 DEB",
        "group": "cosmos-2251-debris",
        "lat": -74.04421356934574,
        "lon": 21.966636779573538,
        "alt_km": 818.6071064638918,
        "timestamp": "2025-12-17T17:50:19.643861+00:00",
        "meta_object_name": "COSMOS 2251 DEB",
        "meta_object_id": "1993-036GE",
        "meta_epoch": "2025-12-17T08:13:10.141536",
        "meta_mean_motion": 14.34796657,
        "meta_eccentricity": 0.00597954,
        "meta_inclination": 74.0612,
        "meta_ra_of_asc_node": 110.931,
        "meta_arg_of_pericenter": 124.0768,
        "meta_mean_anomaly": 236.6081,
        "meta_ephemeris_type": 0,
        "meta_classification_type": "U",
        "meta_norad_cat_id": 33995,
        "meta_element_set_no": 999,
        "meta_rev_at_epoch": 87585,
        "meta_bstar": 0.00069772428,
        "meta_mean_motion_dot": 1.994e-05,
        "meta_mean_motion_ddot": 0,
        "tle_line1": "1 33995U 93036GE  25351.34247849  .00001994  00000+0  69772-3 0  9993",
        "tle_line2": "2 33995  74.0612 110.9310 0059795 124.0768 236.6081 14.34796657875850"
      },
      "geometry": {
        "type": "Point",
        "coordinates": [
          21.966636779573538,
          -74.04421356934574
        ]
      }
    },
    {
      "type": "Feature",
      "properties": {
        "norad_id": 33999,
        "name": "COSMOS 2251 DEB",
        "group": "cosmos-2251-debris",
        "lat": -41.73152392602852,
        "lon": 55.70825650647784,
        "alt_km": 634.5590438252775,
        "timestamp": "2025-12-17T17:50:19.643871+00:00",
        "meta_object_name": "COSMOS 2251 DEB",
        "meta_object_id": "1993-036GJ",
        "meta_epoch": "2025-12-17T02:16:15.317472",
        "meta_mean_motion": 14.83454294,
        "meta_eccentricity": 0.00444276,
        "meta_inclination": 73.9186,
        "meta_ra_of_asc_node": 222.0911,
        "meta_arg_of_pericenter": 116.3909,
        "meta_mean_anomaly": 244.184,
        "meta_ephemeris_type": 0,
        "meta_classification_type": "U",
        "meta_norad_cat_id": 33999,
        "meta_element_set_no": 999,
        "meta_rev_at_epoch": 89315,
        "meta_bstar": 0.00094293659,
        "meta_mean_motion_dot": 7.856e-05,
        "meta_mean_motion_ddot": 0,
        "tle_line1": "1 33999U 93036GJ  25351.09462173  .00007856  00000+0  94294-3 0  9998",
        "tle_line2": "2 33999  73.9186 222.0911 0044427 116.3909 244.1840 14.83454294893159"
      },
      "geometry": {
        "type": "Point",
        "coordinates": [
          55.70825650647784,
          -41.73152392602852
        ]
      }
    },
    {
      "type": "Feature",
      "properties": {
        "norad_id": 34001,
        "name": "COSMOS 2251 DEB",
        "group": "cosmos-2251-debris",
        "lat": 66.9452268287046,
        "lon": 50.13059017572597,
        "alt_km": 767.1521931774469,
        "timestamp": "2025-12-17T17:50:19.643881+00:00",
        "meta_object_name": "COSMOS 2251 DEB",
        "meta_object_id": "1993-036GL",
        "meta_epoch": "2025-12-17T06:22:11.695296",
        "meta_mean_motion": 14.37104206,
        "meta_eccentricity": 0.00201962,
        "meta_inclination": 74.0388,
        "meta_ra_of_asc_node": 273.2655,
        "meta_arg_of_pericenter": 353.3773,
        "meta_mean_anomaly": 161.9303,
        "meta_ephemeris_type": 0,
        "meta_classification_type": "U",
        "meta_norad_cat_id": 34001,
        "meta_element_set_no": 999,
        "meta_rev_at_epoch": 88211,
        "meta_bstar": 0.00017203986,
        "meta_mean_motion_dot": 4.86e-06,
        "meta_mean_motion_ddot": 0,
        "tle_line1": "1 34001U 93036GL  25351.26541314  .00000486  00000+0  17204-3 0  9995",
        "tle_line2": "2 34001  74.0388 273.2655 0020196 353.3773 161.9303 14.37104206882110"
      },
      "geometry": {
        "type": "Point",
        "coordinates": [
          50.13059017572597,
          66.9452268287046
        ]
      }
    }
  ]
}